STARLINK-36194          
1 67130U 25299AE  25365.50002315 -.01875531  00000+0 -27332-1 0  9990
2 67130  42.9990 202.1749 0001860 258.3857 122.0806 15.58187412  3824
ZIYUAN 3-04 (ZY 3-04)   
1 67131U 25300A   25361.09375736  .00002035  00000+0  94249-4 0  9996
2 67131  97.4921  75.1314 0003125 152.4137 207.7265 15.21251311  1672
CZ-4B R/B               
1 67132U 25300B   25362.20140237  .00052350  30493-5  23618-3 0  9998
2 67132  97.5543  77.1821 0165883 333.4129  25.8691 15.66474008  1896
KUIPER-00144            
1 67133U 25301A   25365.45033117  .00025029  00000+0  71912-3 0  9996
2 67133  51.8703  34.9053 0006426 134.2861 225.8653 15.35657079  3241
KUIPER-00164            
1 67134U 25301B   25365.50841610  .00049742  00000+0  13855-2 0  9997
2 67134  51.8723  34.5458 0003089 119.4137 240.7158 15.36301928  3439
KUIPER-00175            
1 67135U 25301C   25365.50366023  .00027780  00000+0  76800-3 0  9996
2 67135  51.8742  34.5097 0002510  72.0633 288.0627 15.36816225  3328
KUIPER-00179            
1 67136U 25301D   25365.50685771  .00031896  00000+0  89167-3 0  9994
2 67136  51.8737  34.5328 0003230  99.7808 260.3543 15.36395362  3436
KUIPER-00181            
1 67137U 25301E   25365.46065678  .00049832  00000+0  14629-2 0  9997
2 67137  51.8644  34.9693 0010452 160.0386 200.1010 15.34608283  3405
KUIPER-00183            
1 67138U 25301F   25365.46383600  .00030068  00000+0  89707-3 0  9997
2 67138  51.8626  34.9870 0010975 162.8359 197.2999 15.34333275  3412
KUIPER-00184            
1 67139U 25301G   25365.45988711  .00029985  00000+0  88656-3 0  9999
2 67139  51.8635  34.9630 0009091 158.3394 201.7977 15.34637479  3525
KUIPER-00186            
1 67140U 25301H   25365.45432497  .00027444  00000+0  79548-3 0  9994
2 67140  51.8687  34.9304 0007770 145.4479 214.7013 15.35320710  3247
KUIPER-00187            
1 67141U 25301J   25365.44644294  .00032868  00000+0  92677-3 0  9998
2 67141  51.8711  34.8802 0004587 129.6576 230.4815 15.36108207  3244
